[{"OBJECT_NAME":"STARLINK-35774","OBJECT_ID":"2025-247U","EPOCH":"2026-03-09T15:15:31.901760","MEAN_MOTION":15.30182502,"ECCENTRICITY":0.0001097,"INCLINATION":53.1571,"RA_OF_ASC_NODE":191.8153,"ARG_OF_PERICENTER":84.7187,"MEAN_ANOMALY":275.3939,"EPHEMERIS_TYPE":0,"CLASSIFICATION_TYPE":"U","NORAD_CAT_ID":66283,"ELEMENT_SET_NO":999,"REV_AT_EPOCH":2102,"BSTAR":0.00082924,"MEAN_MOTION_DOT":0.00024267,"MEAN_MOTION_DDOT":0},{"OBJECT_NAME":"TRANSPORTER-1 OBJECT AA","OBJECT_ID":"2021-006AA","EPOCH":"2026-03-09T22:58:14.761920","MEAN_MOTION":15.29982294,"ECCENTRICITY":0.00086604,"INCLINATION":97.2381,"RA_OF_ASC_NODE":112.457,"ARG_OF_PERICENTER":185.709,"MEAN_ANOMALY":174.4054,"EPHEMERIS_TYPE":0,"CLASSIFICATION_TYPE":"U","NORAD_CAT_ID":47437,"ELEMENT_SET_NO":999,"REV_AT_EPOCH":28414,"BSTAR":0.0002197941,"MEAN_MOTION_DOT":6.312e-5,"MEAN_MOTION_DDOT":0}]
